{
    "links": {
        "self": "http://www.neowsapp.com/rest/v1/neo/3843621?api_key=iIulBulltgU6a56xZRHN4H3l9WmuAYTsLGpBGhQ2"
    },
    "id": "3843621",
    "neo_reference_id": "3843621",
    "name": "(2019 QS2)",
    "designation": "2019 QS2",
    "nasa_jpl_url": "http://ssd.jpl.nasa.gov/sbdb.cgi?sstr=3843621",
    "absolute_magnitude_h": 20.5,
    "estimated_diameter": {
        "kilometers": {
            "estimated_diameter_min": 0.2111324448,
            "estimated_diameter_max": 0.4721064988
        },
        "meters": {
            "estimated_diameter_min": 211.1324447897,
            "estimated_diameter_max": 472.1064988055
        },
        "miles": {
            "estimated_diameter_min": 0.1311915784,
            "estimated_diameter_max": 0.2933532873
        },
        "feet": {
            "estimated_diameter_min": 692.6917701639,
            "estimated_diameter_max": 1548.9058855411
        }
    },
    "is_potentially_hazardous_asteroid": false,
    "close_approach_data": [
        {
            "close_approach_date": "2019-08-28",
            "close_approach_date_full": "2019-Aug-28 06:42",
            "epoch_date_close_approach": 1566974520000,
            "relative_velocity": {
                "kilometers_per_second": "29.9364684268",
                "kilometers_per_hour": "107771.2863364325",
                "miles_per_hour": "66964.8862238794"
            },
            "miss_distance": {
                "astronomical": "0.3196096219",
                "lunar": "124.3281429191",
                "kilometers": "47812918.667745353",
                "miles": "29709570.0090697514"
            },
            "orbiting_body": "Earth"
        }
    ],
    "orbital_data": {
        "orbit_id": "1",
        "orbit_determination_date": "2019-08-27 06:12:03",
        "first_observation_date": "2019-08-20",
        "last_observation_date": "2019-08-27",
        "data_arc_in_days": 7,
        "observations_used": 17,
        "orbit_uncertainty": "9",
        "minimum_orbit_intersection": ".095581",
        "jupiter_tisserand_invariant": "2.816",
        "epoch_osculation": "2458717.5",
        "eccentricity": ".7397420044980243",
        "semi_major_axis": "2.70762331129575",
        "inclination": "22.89781166408326",
        "ascending_node_longitude": "184.2161959689152",
        "orbital_period": "1627.349345634956",
        "perihelion_distance": ".7046806155722538",
        "perihelion_argument": "235.043631280683",
        "aphelion_distance": "4.710566007019246",
        "perihelion_time": "2458762.427968946968",
        "mean_anomaly": "350.0610960613391",
        "mean_motion": ".2212186344411107",
        "equinox": "J2000",
        "orbit_class": {
            "orbit_class_type": "APO",
            "orbit_class_description": "Near-Earth asteroid orbits which cross the Earth’s orbit similar to that of 1862 Apollo",
            "orbit_class_range": "a (semi-major axis) > 1.0 AU; q (perihelion) < 1.017 AU"
        }
    },
    "is_sentry_object": false
}